FLOCK 4G-5              
1 62663U 25009BG  26068.45638436  .00011278  00000+0  40688-3 0  9997
2 62663  97.4058 151.2478 0002094 314.5072  45.5996 15.28679529 63699
STARLINK-34076          
1 63915U 25095AB  26068.32993305  .00042303  00000+0  15376-2 0  9996
2 63915  42.9964 178.1680 0000672 245.5679 114.5103 15.27588334 47725
